IRIDIUM 171             
1 43929U 19002H   24285.40765644  .00004782  00000+0  16985-2 0  9997
2 43929  86.3946 250.2644 0002643  82.2133 277.9363 14.34240933300982
IRIDIUM 170             
1 43930U 19002J   24284.87303458  .00008264  00000+0  13047-2 0  9995
2 43930  86.6065 250.2870 0002521  80.4952 279.6550 14.72275488308872
IRIDIUM 167             
1 43931U 19002K   24285.40131117  .00004304  00000+0  15281-2 0  9990
2 43931  86.3939 250.0458 0002589  85.8676 274.2816 14.34240356300980
IRIDIUM 181             
1 56726U 23068S   24285.35093773  .00005900  00000+0  17345-2 0  9998
2 56726  86.8596 309.4842 0002620  90.2071 269.9431 14.43622688 73894
IRIDIUM 177             
1 56727U 23068T   24285.43236282  .00015723  00000+0  20576-2 0  9996
2 56727  86.1932 260.1407 0002675 102.9962 257.1558 14.80318006 75575
IRIDIUM 174             
1 56728U 23068U   24285.42718369  .00020973  00000+0  27423-2 0  9998
2 56728  86.1938 260.2563 0002768  95.9698 264.1838 14.80341087 75570
IRIDIUM 178             
1 56729U 23068V   24284.74552753  .00002349  00000+0  30574-3 0  9995
2 56729  86.5722 283.5347 0002570  89.3256 270.8259 14.80228771 75476
IRIDIUM 179             
1 56730U 23068W   24284.74010552  .00002318  00000+0  30159-3 0  9998
2 56730  86.6733 289.1321 0002542  99.3223 260.8286 14.80229333 75473
